{"type": "FeatureCollection", "features": [{"type": "Feature", "properties": {"id": "ps-001", "name": "Gaborone Main Substation", "type": "substation", "capacity_mw": 150, "voltage_kv": 132, "status": "operational", "region": "South East", "country": "Botswana"}, "geometry": {"type": "Point", "coordinates": [25.912, -24.6284]}}, {"type": "Feature", "properties": {"id": "ps-002", "name": "Francistown North Substation", "type": "substation", "capacity_mw": 80, "voltage_kv": 66, "status": "operational", "region": "North East", "country": "Botswana"}, "geometry": {"type": "Point", "coordinates": [27.5071, -21.1706]}}, {"type": "Feature", "properties": {"id": "ps-003", "name": "Palapye Substation", "type": "substation", "capacity_mw": 60, "voltage_kv": 66, "status": "operational", "region": "Central", "country": "Botswana"}, "geometry": {"type": "Point", "coordinates": [27.3263, -22.5563]}}, {"type": "Feature", "properties": {"id": "sf-001", "name": "Jwaneng Solar Farm", "type": "solar_farm", "capacity_mw": 50, "panel_type": "photovoltaic", "status": "operational", "region": "Southern", "country": "Botswana"}, "geometry": {"type": "Point", "coordinates": [24.6064, -24.6091]}}, {"type": "Feature", "properties": {"id": "sf-002", "name": "Mogomotsi Solar Project", "type": "solar_farm", "capacity_mw": 40, "panel_type": "photovoltaic", "status": "planned", "region": "Kgalagadi", "country": "Botswana"}, "geometry": {"type": "Point", "coordinates": [23.5, -24.8]}}, {"type": "Feature", "properties": {"id": "tc-001", "name": "Gaborone-Francistown Transmission", "type": "transmission_corridor", "length_km": 430, "voltage_kv": 400, "status": "operational", "region": "National", "country": "Botswana"}, "geometry": {"type": "LineString", "coordinates": [[25.912, -24.6284], [26.5, -23.5], [27.0, -22.5], [27.5071, -21.1706]]}}, {"type": "Feature", "properties": {"id": "tc-002", "name": "Morupule-Mochudi Transmission", "type": "transmission_corridor", "length_km": 120, "voltage_kv": 132, "status": "operational", "region": "National", "country": "Botswana"}, "geometry": {"type": "LineString", "coordinates": [[26.2377, -23.0534], [25.912, -24.6284]]}}]}