{"type": "FeatureCollection", "features": [{"type": "Feature", "properties": {"id": "flood-001", "name": "Zambezi Flood Plain", "level": "high", "severity": 85}, "geometry": {"type": "Polygon", "coordinates": [[[26.7866, -17.5], [26.7653, -16.6232], [25.8795, -16.3861], [25.0322, -16.1269], [24.2751, -16.6513], [24.464, -17.5], [24.2335, -18.3776], [25.0272, -18.8877], [25.8364, -18.4874], [26.3361, -18.0793], [26.7866, -17.5]]]}}, {"type": "Feature", "properties": {"id": "flood-002", "name": "Limpopo River Basin", "level": "medium", "severity": 60}, "geometry": {"type": "Polygon", "coordinates": [[[29.2732, -24.5], [28.6979, -23.8649], [28.0, -23.5519], [27.2678, -23.8338], [26.7461, -24.5], [27.1005, -25.3185], [28.0, -25.4229], [28.7315, -25.1656], [29.2732, -24.5]]]}}, {"type": "Feature", "properties": {"id": "flood-003", "name": "Okavango Delta Flood Zone", "level": "high", "severity": 90}, "geometry": {"type": "Polygon", "coordinates": [[[23.1577, -19.2], [23.2206, -18.629], [22.668, -18.3003], [22.1015, -18.5481], [21.872, -18.9841], [21.5827, -19.5153], [22.0837, -19.881], [22.6486, -19.9961], [22.9884, -19.587], [23.1577, -19.2]]]}}]}