{"type": "FeatureCollection", "features": [{"type": "Feature", "properties": {"id": "heat-001", "name": "Northern Heat Belt", "level": "extreme", "severity": 88}, "geometry": {"type": "Polygon", "coordinates": [[[28.9334, -20.0], [28.4718, -19.3365], [27.9621, -18.6636], [27.0607, -18.7295], [26.2916, -19.175], [26.0764, -20.0], [26.3574, -20.7801], [27.0562, -21.2835], [27.9317, -21.2484], [28.7069, -20.824], [28.9334, -20.0]]]}}, {"type": "Feature", "properties": {"id": "heat-002", "name": "Central Kalahari Heat Zone", "level": "severe", "severity": 82}, "geometry": {"type": "Polygon", "coordinates": [[[24.5951, -22.5], [24.2614, -21.8271], [23.509, -21.6854], [23.0, -21.3718], [22.4082, -21.553], [21.7594, -21.8383], [21.9818, -22.5], [21.4895, -23.3057], [22.221, -23.7466], [23.0, -24.0902], [23.8433, -23.8495], [24.0915, -23.0822], [24.5951, -22.5]]]}}, {"type": "Feature", "properties": {"id": "heat-003", "name": "Makgadikgadi Heat Exposure", "level": "high", "severity": 70}, "geometry": {"type": "Polygon", "coordinates": [[[26.483, -20.8], [25.9175, -20.4098], [25.5, -20.0021], [24.7607, -20.1089], [24.9026, -20.8], [24.7795, -21.4736], [25.5, -21.7497], [26.0871, -21.3489], [26.483, -20.8]]]}}]}