{"type": "FeatureCollection", "features": [{"type": "Feature", "properties": {"id": "power-risk-001", "name": "Gaborone Substation Flood Exposure", "asset_type": "substation", "exposure_score": 72, "climate_threat": "Flash flooding during intense rainfall events", "economic_impact": "R45M in infrastructure damage potential; 200,000 customers affected", "region": "South East"}, "geometry": {"type": "Polygon", "coordinates": [[[26.0164, -24.65], [25.9803, -24.5771], [25.9, -24.5122], [25.8299, -24.5863], [25.798, -24.65], [25.8284, -24.715], [25.9, -24.7916], [25.9705, -24.7141], [26.0164, -24.65]]]}}, {"type": "Feature", "properties": {"id": "power-risk-002", "name": "Morupule Power Station Heat Stress", "asset_type": "power_station", "exposure_score": 85, "climate_threat": "Extreme heat reducing cooling efficiency by 15-20%", "economic_impact": "R120M annual revenue impact; load shedding risk", "region": "Central"}, "geometry": {"type": "Polygon", "coordinates": [[[26.4054, -23.1], [26.3032, -23.0204], [26.2224, -22.9832], [26.1287, -22.9863], [26.0413, -23.0469], [26.0374, -23.1544], [26.1232, -23.2224], [26.2213, -23.2111], [26.3105, -23.1853], [26.4054, -23.1]]]}}, {"type": "Feature", "properties": {"id": "power-risk-003", "name": "Transmission Corridor Wind Risk", "asset_type": "transmission_line", "exposure_score": 58, "climate_threat": "Severe storms causing line damage", "economic_impact": "R8M per incident in repairs; 4-hour average outage", "region": "National"}, "geometry": {"type": "LineString", "coordinates": [[25.9, -24.65], [26.5, -24.0], [27.0, -23.5], [27.5, -21.2]]}}]}