{"type": "FeatureCollection", "features": [{"type": "Feature", "properties": {"id": "road-risk-001", "name": "A1 Highway Flood Vulnerability", "asset_type": "national_road", "exposure_score": 78, "climate_threat": "Flooding of low-lying sections during wet season", "economic_impact": "R35M in annual maintenance; trade route disruption", "region": "North East"}, "geometry": {"type": "LineString", "coordinates": [[27.0, -22.5], [27.3, -21.9], [27.5, -21.5], [27.7, -21.2]]}}, {"type": "Feature", "properties": {"id": "road-risk-002", "name": "Trans-Kgalagadi Road Erosion", "asset_type": "regional_road", "exposure_score": 65, "climate_threat": "Intensified erosion from irregular heavy rainfall", "economic_impact": "R12M annual grading costs; accessibility risk for remote communities", "region": "Kgalagadi"}, "geometry": {"type": "LineString", "coordinates": [[23.0, -24.5], [24.0, -25.0], [25.0, -25.2], [25.5, -25.5]]}}, {"type": "Feature", "properties": {"id": "road-risk-003", "name": "Mochudi-Gaborone Corridor Heat Damage", "asset_type": "arterial_road", "exposure_score": 55, "climate_threat": "Asphalt deterioration from prolonged high temperatures", "economic_impact": "R18M resurfacing required every 5 years instead of 10", "region": "Kgatleng"}, "geometry": {"type": "LineString", "coordinates": [[26.2, -23.1], [26.0, -23.8], [25.9, -24.3], [25.9, -24.65]]}}]}