{"type": "FeatureCollection", "features": [{"type": "Feature", "properties": {"id": "tow-001", "name": "Gaborone Central Tower", "type": "telecom_tower", "height_m": 120, "network": "BOCRA", "status": "operational", "region": "South East", "country": "Botswana"}, "geometry": {"type": "Point", "coordinates": [25.912, -24.6284]}}, {"type": "Feature", "properties": {"id": "tow-002", "name": "Broadhurst Tower", "type": "telecom_tower", "height_m": 85, "network": "Mascom", "status": "operational", "region": "South East", "country": "Botswana"}, "geometry": {"type": "Point", "coordinates": [25.92, -24.65]}}, {"type": "Feature", "properties": {"id": "tow-003", "name": "Francistown East Tower", "type": "telecom_tower", "height_m": 95, "network": "Orange", "status": "operational", "region": "North East", "country": "Botswana"}, "geometry": {"type": "Point", "coordinates": [27.5071, -21.1706]}}, {"type": "Feature", "properties": {"id": "tow-004", "name": "Palapye Relay Tower", "type": "telecom_tower", "height_m": 60, "network": "Mascom", "status": "operational", "region": "Central", "country": "Botswana"}, "geometry": {"type": "Point", "coordinates": [27.3263, -22.5563]}}, {"type": "Feature", "properties": {"id": "tow-005", "name": "Maun Communications Tower", "type": "telecom_tower", "height_m": 75, "network": "BOCRA", "status": "operational", "region": "North West", "country": "Botswana"}, "geometry": {"type": "Point", "coordinates": [23.419, -19.9897]}}, {"type": "Feature", "properties": {"id": "tow-006", "name": "Jwaneng Mine Tower", "type": "telecom_tower", "height_m": 50, "network": "Debswana", "status": "operational", "region": "Southern", "country": "Botswana"}, "geometry": {"type": "Point", "coordinates": [24.6064, -24.6091]}}]}