{"type": "FeatureCollection", "features": [{"type": "Feature", "properties": {"id": "telecom-risk-001", "name": "Gaborone Central Tower Wind Exposure", "asset_type": "telecom_tower", "exposure_score": 68, "climate_threat": "Severe storms causing tower sway and service outages", "economic_impact": "R2.5M per incident; connectivity loss for 50,000 users", "region": "South East"}, "geometry": {"type": "Polygon", "coordinates": [[[25.9645, -24.63], [25.9273, -24.6027], [25.8862, -24.5926], [25.879, -24.63], [25.8912, -24.6595], [25.9273, -24.6572], [25.9645, -24.63]]]}}, {"type": "Feature", "properties": {"id": "telecom-risk-002", "name": "Francistown Tower Heat Impact", "asset_type": "telecom_tower", "exposure_score": 75, "climate_threat": "Equipment overheating reducing network reliability", "economic_impact": "R1.8M cooling costs; 8-hour monthly downtime", "region": "North East"}, "geometry": {"type": "Polygon", "coordinates": [[[27.5435, -21.17], [27.5383, -21.137], [27.5017, -21.1362], [27.4717, -21.1528], [27.4746, -21.1859], [27.5029, -21.1991], [27.5411, -21.2064], [27.5435, -21.17]]]}}, {"type": "Feature", "properties": {"id": "telecom-risk-003", "name": "Rural Telecom Relay Flood Zone", "asset_type": "relay_station", "exposure_score": 82, "climate_threat": "Flash flooding damaging ground equipment", "economic_impact": "R800K per damage incident; emergency coordination impact", "region": "Central"}, "geometry": {"type": "Polygon", "coordinates": [[[27.3653, -22.56], [27.3617, -22.5308], [27.33, -22.5109], [27.2885, -22.5217], [27.2848, -22.56], [27.2945, -22.5928], [27.33, -22.6191], [27.3754, -22.6019], [27.3653, -22.56]]]}}]}