{"type": "FeatureCollection", "features": [{"type": "Feature", "properties": {"id": "nr-001", "name": "A1 Highway (Gaborone-Francistown)", "type": "national_road", "length_km": 430, "lanes": 2, "surface": "asphalt", "status": "operational", "region": "National", "country": "Botswana"}, "geometry": {"type": "LineString", "coordinates": [[25.912, -24.6284], [26.5, -23.5], [27.0, -22.5], [27.5071, -21.1706]]}}, {"type": "Feature", "properties": {"id": "nr-002", "name": "A2 Highway (Gaborone-Mochudi)", "type": "national_road", "length_km": 30, "lanes": 4, "surface": "asphalt", "status": "operational", "region": "South East", "country": "Botswana"}, "geometry": {"type": "LineString", "coordinates": [[25.912, -24.6284], [26.0137, -24.4179], [26.2377, -23.0534]]}}, {"type": "Feature", "properties": {"id": "nr-003", "name": "A3 Highway (Palapye-Orapa)", "type": "national_road", "length_km": 180, "lanes": 2, "surface": "asphalt", "status": "operational", "region": "Central", "country": "Botswana"}, "geometry": {"type": "LineString", "coordinates": [[27.3263, -22.5563], [27.8, -22.2], [26.0, -21.9]]}}, {"type": "Feature", "properties": {"id": "nr-004", "name": "Trans-Kgalagadi Road", "type": "national_road", "length_km": 250, "lanes": 2, "surface": "gravel", "status": "operational", "region": "Kgalagadi", "country": "Botswana"}, "geometry": {"type": "LineString", "coordinates": [[23.5, -24.8], [24.5, -25.2], [25.5, -25.5]]}}]}