{"type": "FeatureCollection", "features": [{"type": "Feature", "properties": {"id": "water-risk-001", "name": "Gaborone Dam Drought Stress", "asset_type": "dam", "exposure_score": 88, "climate_threat": "Prolonged drought reducing water security", "economic_impact": "R200M economic cost; water restrictions affecting industry", "region": "South East"}, "geometry": {"type": "Polygon", "coordinates": [[[26.007, -24.72], [26.0689, -24.5755], [25.907, -24.5605], [25.7925, -24.5592], [25.6698, -24.6011], [25.6308, -24.72], [25.7022, -24.8175], [25.7946, -24.8748], [25.9197, -24.9149], [25.9887, -24.8116], [26.007, -24.72]]]}}, {"type": "Feature", "properties": {"id": "water-risk-002", "name": "Mochudi Dam Sedimentation Risk", "asset_type": "dam", "exposure_score": 62, "climate_threat": "Increased sediment from erosion reducing capacity", "economic_impact": "R15M dredging cost; reduced water storage lifespan", "region": "Kgatleng"}, "geometry": {"type": "Polygon", "coordinates": [[[26.3523, -23.05], [26.376, -22.9248], [26.24, -22.9026], [26.1463, -22.9638], [26.0535, -23.05], [26.1599, -23.1237], [26.24, -23.1706], [26.3356, -23.138], [26.3523, -23.05]]]}}, {"type": "Feature", "properties": {"id": "water-risk-003", "name": "Water Treatment Plant Flood Risk", "asset_type": "treatment_plant", "exposure_score": 70, "climate_threat": "Flooding compromising water quality treatment", "economic_impact": "R45M treatment disruptions; contamination risk", "region": "South East"}, "geometry": {"type": "Polygon", "coordinates": [[[25.9529, -24.65], [25.9283, -24.595], [25.8663, -24.5956], [25.8358, -24.6306], [25.8371, -24.6688], [25.8652, -24.709], [25.9178, -24.693], [25.9529, -24.65]]]}}]}