{"type": "FeatureCollection", "features": [{"type": "Feature", "properties": {"id": "dam-001", "name": "Gaborone Dam", "type": "dam", "capacity_ml": 142000, "type_category": "earthfill", "status": "operational", "region": "South East", "country": "Botswana"}, "geometry": {"type": "Point", "coordinates": [25.85, -24.72]}}, {"type": "Feature", "properties": {"id": "dam-002", "name": "Mochudi Dam", "type": "dam", "capacity_ml": 28000, "type_category": "earthfill", "status": "operational", "region": "Kgatleng", "country": "Botswana"}, "geometry": {"type": "Point", "coordinates": [26.2377, -23.0534]}}, {"type": "Feature", "properties": {"id": "dam-003", "name": "Lentswane Dam", "type": "dam", "capacity_ml": 18500, "type_category": "earthfill", "status": "operational", "region": "Kweneng", "country": "Botswana"}, "geometry": {"type": "Point", "coordinates": [25.7, -24.5]}}, {"type": "Feature", "properties": {"id": "wtp-001", "name": "Gaborone Water Treatment Plant", "type": "water_treatment", "capacity_mld": 120, "process": "conventional", "status": "operational", "region": "South East", "country": "Botswana"}, "geometry": {"type": "Point", "coordinates": [25.88, -24.65]}}, {"type": "Feature", "properties": {"id": "wtp-002", "name": "Molepolole Water Treatment", "type": "water_treatment", "capacity_mld": 35, "process": "conventional", "status": "operational", "region": "Kweneng", "country": "Botswana"}, "geometry": {"type": "Point", "coordinates": [25.4167, -24.4167]}}]}